{"type": "FeatureCollection", "features": [ {"type": "Feature", "properties": {"norad_id": 30251, "name": "FENGYUN 1C DEB", "group": "fengyun-1c-debris", "lat": 12.276816890147353, "lon": 172.3908330172515, "alt_km": 758.8529758736922, "timestamp": "2025-12-02T10:50:47.549074+00:00", "meta": {"OBJECT_NAME": "FENGYUN 1C DEB", "OBJECT_ID": "1999-025XL", "EPOCH": "2025-12-02T01:24:54.639072", "MEAN_MOTION": 14.29261716, "ECCENTRICITY": 0.0052152, "INCLINATION": 99.0495, "RA_OF_ASC_NODE": 173.9705, "ARG_OF_PERICENTER": 1.149, "MEAN_ANOMALY": 150.4228, "EPHEMERIS_TYPE": 0, "CLASSIFICATION_TYPE": "U", "NORAD_CAT_ID": 30251, "ELEMENT_SET_NO": 999, "REV_AT_EPOCH": 97989, "BSTAR": 0.00055404, "MEAN_MOTION_DOT": 1.382e-05, "MEAN_MOTION_DDOT": 0}, "tle": {"line1": "1 30251U 99025XL  25336.05896573  .00001382  00000+0  55404-3 0  9992", "line2": "2 30251  99.0495 173.9705 0052152   1.1490 150.4228 14.29261716979894"}}, "geometry": {"type": "Point", "coordinates": [172.3908330172515, 12.276816890147353]}}, {"type": "Feature", "properties": {"norad_id": 30252, "name": "FENGYUN 1C DEB", "group": "fengyun-1c-debris", "lat": -60.68730076840883, "lon": 155.87480089523942, "alt_km": 825.9649336898183, "timestamp": "2025-12-02T10:50:47.549084+00:00", "meta": {"OBJECT_NAME": "FENGYUN 1C DEB", "OBJECT_ID": "1999-025XM", "EPOCH": "2025-12-01T23:46:45.308352", "MEAN_MOTION": 14.09681534, "ECCENTRICITY": 0.0065753, "INCLINATION": 98.7441, "RA_OF_ASC_NODE": 351.3362, "ARG_OF_PERICENTER": 272.4052, "MEAN_ANOMALY": 150.9143, "EPHEMERIS_TYPE": 0, "CLASSIFICATION_TYPE": "U", "NORAD_CAT_ID": 30252, "ELEMENT_SET_NO": 999, "REV_AT_EPOCH": 96814, "BSTAR": 0.00058671, "MEAN_MOTION_DOT": 1.006e-05, "MEAN_MOTION_DDOT": 0}, "tle": {"line1": "1 30252U 99025XM  25335.99080218  .00001006  00000+0  58671-3 0  9998", "line2": "2 30252  98.7441 351.3362 0065753 272.4052 150.9143 14.09681534968140"}}, "geometry": {"type": "Point", "coordinates": [155.87480089523942, -60.68730076840883]}}, {"type": "Feature", "properties": {"norad_id": 30253, "name": "FENGYUN 1C DEB", "group": "fengyun-1c-debris", "lat": -54.23405568740677, "lon": 77.73326315279161, "alt_km": 1084.0662768581515, "timestamp": "2025-12-02T10:50:47.549094+00:00", "meta": {"OBJECT_NAME": "FENGYUN 1C DEB", "OBJECT_ID": "1999-025XN", "EPOCH": "2025-12-02T04:24:09.908064", "MEAN_MOTION": 13.73122094, "ECCENTRICITY": 0.0222347, "INCLINATION": 98.7529, "RA_OF_ASC_NODE": 65.1378, "ARG_OF_PERICENTER": 69.46, "MEAN_ANOMALY": 351.0608, "EPHEMERIS_TYPE": 0, "CLASSIFICATION_TYPE": "U", "NORAD_CAT_ID": 30253, "ELEMENT_SET_NO": 999, "REV_AT_EPOCH": 93869, "BSTAR": 0.0021182, "MEAN_MOTION_DOT": 2.303e-05, "MEAN_MOTION_DDOT": 0}, "tle": {"line1": "1 30253U 99025XN  25336.18344801  .00002303  00000+0  21182-2 0  9999", "line2": "2 30253  98.7529  65.1378 0222347  69.4600 351.0608 13.73122094938690"}}, "geometry": {"type": "Point", "coordinates": [77.73326315279161, -54.23405568740677]}}, {"type": "Feature", "properties": {"norad_id": 30257, "name": "FENGYUN 1C DEB", "group": "fengyun-1c-debris", "lat": -60.52632321519241, "lon": 139.49199735051064, "alt_km": 884.6092869714839, "timestamp": "2025-12-02T10:50:47.549104+00:00", "meta": {"OBJECT_NAME": "FENGYUN 1C DEB", "OBJECT_ID": "1999-025XS", "EPOCH": "2025-12-01T22:05:55.615776", "MEAN_MOTION": 14.09715285, "ECCENTRICITY": 0.0059469, "INCLINATION": 98.7495, "RA_OF_ASC_NODE": 334.7883, "ARG_OF_PERICENTER": 129.3985, "MEAN_ANOMALY": 297.5566, "EPHEMERIS_TYPE": 0, "CLASSIFICATION_TYPE": "U", "NORAD_CAT_ID": 30257, "ELEMENT_SET_NO": 999, "REV_AT_EPOCH": 97065, "BSTAR": 0.00013863, "MEAN_MOTION_DOT": 2.05e-06, "MEAN_MOTION_DDOT": 0}, "tle": {"line1": "1 30257U 99025XS  25335.92078259  .00000205  00000+0  13863-3 0  9992", "line2": "2 30257  98.7495 334.7883 0059469 129.3985 297.5566 14.09715285970656"}}, "geometry": {"type": "Point", "coordinates": [139.49199735051064, -60.52632321519241]}}, {"type": "Feature", "properties": {"norad_id": 30259, "name": "FENGYUN 1C DEB", "group": "fengyun-1c-debris", "lat": -0.8931554440242865, "lon": 7.582207144554315, "alt_km": 803.8813258522068, "timestamp": "2025-12-02T10:50:47.549114+00:00", "meta": {"OBJECT_NAME": "FENGYUN 1C DEB", "OBJECT_ID": "1999-025XU", "EPOCH": "2025-12-02T03:55:31.723968", "MEAN_MOTION": 14.51414156, "ECCENTRICITY": 0.0242472, "INCLINATION": 98.7627, "RA_OF_ASC_NODE": 187.4192, "ARG_OF_PERICENTER": 300.4892, "MEAN_ANOMALY": 176.8247, "EPHEMERIS_TYPE": 0, "CLASSIFICATION_TYPE": "U", "NORAD_CAT_ID": 30259, "ELEMENT_SET_NO": 999, "REV_AT_EPOCH": 99321, "BSTAR": 0.00056367, "MEAN_MOTION_DOT": 3.235e-05, "MEAN_MOTION_DDOT": 0}, "tle": {"line1": "1 30259U 99025XU  25336.16356162  .00003235  00000+0  56367-3 0  9995", "line2": "2 30259  98.7627 187.4192 0242472 300.4892 176.8247 14.51414156993210"}}, "geometry": {"type": "Point", "coordinates": [7.582207144554315, -0.8931554440242865]}}, {"type": "Feature", "properties": {"norad_id": 30261, "name": "FENGYUN 1C DEB", "group": "fengyun-1c-debris", "lat": 76.73623982717024, "lon": -23.18886154056483, "alt_km": 238.42193935161777, "timestamp": "2025-12-02T10:50:47.549125+00:00", "meta": {"OBJECT_NAME": "FENGYUN 1C DEB", "OBJECT_ID": "1999-025XW", "EPOCH": "2025-12-02T01:34:32.102112", "MEAN_MOTION": 16.11001551, "ECCENTRICITY": 0.0011746, "INCLINATION": 98.734, "RA_OF_ASC_NODE": 17.0089, "ARG_OF_PERICENTER": 306.6584, "MEAN_ANOMALY": 53.3615, "EPHEMERIS_TYPE": 0, "CLASSIFICATION_TYPE": "U", "NORAD_CAT_ID": 30261, "ELEMENT_SET_NO": 999, "REV_AT_EPOCH": 2201, "BSTAR": 0.0018921, "MEAN_MOTION_DOT": 0.01809526, "MEAN_MOTION_DDOT": 0.0027185}, "tle": {"line1": "1 30261U 99025XW  25336.06564933  .01809526  27185-2  18921-2 0  9991", "line2": "2 30261  98.7340  17.0089 0011746 306.6584  53.3615 16.11001551 22010"}}, "geometry": {"type": "Point", "coordinates": [-23.18886154056483, 76.73623982717024]}}, {"type": "Feature", "properties": {"norad_id": 30263, "name": "FENGYUN 1C DEB", "group": "fengyun-1c-debris", "lat": -3.2358188512065533, "lon": 92.35212943118235, "alt_km": 802.4824617426748, "timestamp": "2025-12-02T10:50:47.549135+00:00", "meta": {"OBJECT_NAME": "FENGYUN 1C DEB", "OBJECT_ID": "1999-025XY", "EPOCH": "2025-12-02T00:50:26.884032", "MEAN_MOTION": 14.0142305, "ECCENTRICITY": 0.0144904, "INCLINATION": 98.9359, "RA_OF_ASC_NODE": 91.4342, "ARG_OF_PERICENTER": 30.0641, "MEAN_ANOMALY": 25.4664, "EPHEMERIS_TYPE": 0, "CLASSIFICATION_TYPE": "U", "NORAD_CAT_ID": 30263, "ELEMENT_SET_NO": 999, "REV_AT_EPOCH": 95875, "BSTAR": 0.0010689, "MEAN_MOTION_DOT": 1.725e-05, "MEAN_MOTION_DDOT": 0}, "tle": {"line1": "1 30263U 99025XY  25336.03503338  .00001725  00000+0  10689-2 0  9993", "line2": "2 30263  98.9359  91.4342 0144904  30.0641  25.4664 14.01423050958759"}}, "geometry": {"type": "Point", "coordinates": [92.35212943118235, -3.2358188512065533]}}, {"type": "Feature", "properties": {"norad_id": 30264, "name": "FENGYUN 1C DEB", "group": "fengyun-1c-debris", "lat": -40.62277890472797, "lon": 39.437365414600535, "alt_km": 797.054061106357, "timestamp": "2025-12-02T10:50:47.549145+00:00", "meta": {"OBJECT_NAME": "FENGYUN 1C DEB", "OBJECT_ID": "1999-025XZ", "EPOCH": "2025-12-02T02:45:54.935424", "MEAN_MOTION": 14.07569026, "ECCENTRICITY": 0.0106502, "INCLINATION": 98.9711, "RA_OF_ASC_NODE": 31.3153, "ARG_OF_PERICENTER": 317.4255, "MEAN_ANOMALY": 96.0814, "EPHEMERIS_TYPE": 0, "CLASSIFICATION_TYPE": "U", "NORAD_CAT_ID": 30264, "ELEMENT_SET_NO": 999, "REV_AT_EPOCH": 96408, "BSTAR": 0.0013244, "MEAN_MOTION_DOT": 2.308e-05, "MEAN_MOTION_DDOT": 0}, "tle": {"line1": "1 30264U 99025XZ  25336.11521916  .00002308  00000+0  13244-2 0  9993", "line2": "2 30264  98.9711  31.3153 0106502 317.4255  96.0814 14.07569026964084"}}, "geometry": {"type": "Point", "coordinates": [39.437365414600535, -40.62277890472797]}}, {"type": "Feature", "properties": {"norad_id": 30265, "name": "FENGYUN 1C DEB", "group": "fengyun-1c-debris", "lat": -75.58933036680642, "lon": -131.25299963757465, "alt_km": 723.3521923013805, "timestamp": "2025-12-02T10:50:47.549155+00:00", "meta": {"OBJECT_NAME": "FENGYUN 1C DEB", "OBJECT_ID": "1999-025YA", "EPOCH": "2025-11-29T06:02:58.524864", "MEAN_MOTION": 14.58177851, "ECCENTRICITY": 0.00286663, "INCLINATION": 98.663, "RA_OF_ASC_NODE": 81.8092, "ARG_OF_PERICENTER": 56.3168, "MEAN_ANOMALY": 334.1718, "EPHEMERIS_TYPE": 0, "CLASSIFICATION_TYPE": "U", "NORAD_CAT_ID": 30265, "ELEMENT_SET_NO": 999, "REV_AT_EPOCH": 98205, "BSTAR": 0.0022230176, "MEAN_MOTION_DOT": 0.00010273, "MEAN_MOTION_DDOT": 0}, "tle": {"line1": "1 30265U 99025YA  25333.25206626  .00010273  00000+0  22230-2 0  9999", "line2": "2 30265  98.6630  81.8092 0028666  56.3168 334.1718 14.58177851982053"}}, "geometry": {"type": "Point", "coordinates": [-131.25299963757465, -75.58933036680642]}}, {"type": "Feature", "properties": {"norad_id": 30266, "name": "FENGYUN 1C DEB", "group": "fengyun-1c-debris", "lat": 74.13320390258023, "lon": 6.444863575673529, "alt_km": 777.8085035180948, "timestamp": "2025-12-02T10:50:47.549165+00:00", "meta": {"OBJECT_NAME": "FENGYUN 1C DEB", "OBJECT_ID": "1999-025YB", "EPOCH": "2025-12-02T03:57:23.287968", "MEAN_MOTION": 14.14999219, "ECCENTRICITY": 0.0083568, "INCLINATION": 99.044, "RA_OF_ASC_NODE": 40.2349, "ARG_OF_PERICENTER": 95.9384, "MEAN_ANOMALY": 319.6891, "EPHEMERIS_TYPE": 0, "CLASSIFICATION_TYPE": "U", "NORAD_CAT_ID": 30266, "ELEMENT_SET_NO": 999, "REV_AT_EPOCH": 96640, "BSTAR": 0.0014376, "MEAN_MOTION_DOT": 2.834e-05, "MEAN_MOTION_DDOT": 0}, "tle": {"line1": "1 30266U 99025YB  25336.16485287  .00002834  00000+0  14376-2 0  9991", "line2": "2 30266  99.0440  40.2349 0083568  95.9384 319.6891 14.14999219966406"}}, "geometry": {"type": "Point", "coordinates": [6.444863575673529, 74.13320390258023]}}]}